NORAD_CAT_ID,OBJECT_NAME,OBJECT_TYPE,EPOCH,MEAN_MOTION,ECCENTRICITY,INCLINATION,RA_OF_ASC_NODE,ARG_OF_PERICENTER,MEAN_ANOMALY,BSTAR,MEAN_MOTION_DOT,MEAN_MOTION_DDOT,TLE_LINE0,TLE_LINE1,TLE_LINE2,SEMIMAJOR_AXIS,PERIOD,APOGEE,PERIGEE,DECAYED
53937.0,STARLINK-4765,PAYLOAD,2023-10-07 18:19:22,15.08845277,0.0001883,53.2168,302.1524,74.3996,285.7204,8.558e-05,1.074e-05,0.0,0 STARLINK-4765,1 53937U 22119BD  23280.76345953  .00001074  00000-0  85580-4 0  9991,2 53937  53.2168 302.1524 0001883  74.3996 285.7204 15.08845277 58669,6917.864,95.437,541.032,538.427,0.0
53937.0,STARLINK-4765,PAYLOAD,2023-10-08 02:16:19,15.08835578,0.000194,53.2173,300.6691,91.6367,268.4847,-5.3588e-05,-1.141e-05,0.0,0 STARLINK-4765,1 53937U 22119BD  23281.09466582 -.00001141  00000-0 -53588-4 0  9990,2 53937  53.2173 300.6691 0001940  91.6367 268.4847 15.08835578 58294,6917.894,95.438,541.101,538.417,0.0
53937.0,STARLINK-4765,PAYLOAD,2023-10-08 08:37:51,15.08837312,0.0001874,53.2174,299.4815,91.9276,268.1931,-1.1594e-05,-4.73e-06,0.0,0 STARLINK-4765,1 53937U 22119BD  23281.35962563 -.00000473  00000-0 -11594-4 0  9997,2 53937  53.2174 299.4815 0001874  91.9276 268.1931 15.08837312 58756,6917.889,95.438,541.05,538.457,0.0
53937.0,STARLINK-4765,PAYLOAD,2023-10-08 18:10:10,15.08840152,0.000188,53.2174,297.6972,92.4722,267.6485,-2.5738e-05,-6.98e-06,0.0,0 STARLINK-4765,1 53937U 22119BD  23281.75706477 -.00000698  00000-0 -25738-4 0  9995,2 53937  53.2174 297.6972 0001880  92.4722 267.6485 15.08840152 58810,6917.88,95.438,541.045,538.444,0.0
53937.0,STARLINK-4765,PAYLOAD,2023-10-09 08:28:38,15.08846979,0.000185,53.2173,295.0197,92.4886,267.6318,0.0001406,1.951e-05,0.0,0 STARLINK-4765,1 53937U 22119BD  23282.35322293  .00001951  00000-0  14060-3 0  9998,2 53937  53.2173 295.0197 0001850  92.4886 267.6318 15.08846979 58489,6917.859,95.437,541.004,538.444,0.0
53937.0,STARLINK-4765,PAYLOAD,2023-10-09 18:00:57,15.08843261,0.0001995,53.2176,293.2339,93.4045,266.7175,6.0088e-05,6.68e-06,0.0,0 STARLINK-4765,1 53937U 22119BD  23282.75066463  .00000668  00000-0  60088-4 0  9992,2 53937  53.2176 293.2339 0001995  93.4045 266.7175 15.08843261 58963,6917.87,95.437,541.116,538.355,0.0
53937.0,STARLINK-4765,PAYLOAD,2023-10-10 01:57:53,15.08839705,0.0001958,53.2176,291.7484,92.9492,267.1724,0.00018626,2.677e-05,0.0,0 STARLINK-4765,1 53937U 22119BD  23283.08186742  .00002677  00000-0  18626-3 0  9994,2 53937  53.2176 291.7484 0001958  92.9492 267.1724 15.08839705 58598,6917.881,95.438,541.101,538.392,0.0
53937.0,STARLINK-4765,PAYLOAD,2023-10-10 09:54:48,15.08852594,0.0001949,53.2169,290.2606,100.5896,259.5316,0.00029464,4.406e-05,0.0,0 STARLINK-4765,1 53937U 22119BD  23283.41306054  .00004406  00000-0  29464-3 0  9995,2 53937  53.2169 290.2606 0001949 100.5896 259.5316 15.08852594 58643,6917.842,95.437,541.055,538.359,0.0
53937.0,STARLINK-4765,PAYLOAD,2023-10-10 17:51:45,15.08831211,0.0002309,53.2169,288.7763,86.7048,273.4208,-6.4241e-05,-1.31e-05,0.0,0 STARLINK-4765,1 53937U 22119BD  23283.74427258 -.00001310  00000-0 -64241-4 0  9997,2 53937  53.2169 288.7763 0002309  86.7048 273.4208 15.08831211 58697,6917.907,95.438,541.37,538.175,0.0
53937.0,STARLINK-4765,PAYLOAD,2023-10-11 06:34:50,15.08831378,0.000192,53.217,286.3957,95.7371,264.3841,-1.8949e-05,-5.9e-06,0.0,0 STARLINK-4765,1 53937U 22119BD  23284.27419461 -.00000590  00000-0 -18949-4 0  9996,2 53937  53.2170 286.3957 0001920  95.7371 264.3841 15.08831378 59197,6917.907,95.438,541.1,538.444,0.0
53937.0,STARLINK-4765,PAYLOAD,2023-10-12 04:50:14,15.08847106,0.0001825,53.2158,282.233,92.6169,267.5032,0.00053474,8.234e-05,0.0,0 STARLINK-4765,1 53937U 22119BD  23285.20155585  .00008234  00000-0  53474-3 0  9996,2 53937  53.2158 282.2330 0001825  92.6169 267.5032 15.08847106 58910,6917.859,95.437,540.986,538.461,0.0
53937.0,STARLINK-4765,PAYLOAD,2023-10-12 06:25:37,15.0885075,0.0001934,53.2158,281.935,96.1425,263.9788,0.00081043,0.00012637,0.0,0 STARLINK-4765,1 53937U 22119BD  23285.26779614  .00012637  00000-0  81043-3 0  9992,2 53937  53.2158 281.9350 0001934  96.1425 263.9788 15.08850750 59348,6917.848,95.437,541.05,538.375,0.0
53937.0,STARLINK-4765,PAYLOAD,2023-10-13 04:41:01,15.08851782,0.0001887,53.2169,277.7719,96.3618,263.7589,0.000367,5.559e-05,0.0,0 STARLINK-4765,1 53937U 22119BD  23286.19515270  .00005559  00000-0  36700-3 0  9996,2 53937  53.2169 277.7719 0001887  96.3618 263.7589 15.08851782 59067,6917.844,95.437,541.015,538.404,0.0
53937.0,STARLINK-4765,PAYLOAD,2023-10-13 09:27:10,15.08855085,0.0001984,53.2178,276.8776,102.3377,257.7838,0.00038568,5.858e-05,0.0,0 STARLINK-4765,1 53937U 22119BD  23286.39386976  .00005858  00000-0  38568-3 0  9993,2 53937  53.2178 276.8776 0001984 102.3377 257.7838 15.08855085 59518,6917.834,95.437,541.072,538.327,0.0
53937.0,STARLINK-4765,PAYLOAD,2023-10-14 04:31:48,15.08847267,0.0002009,53.2161,273.306,101.9466,258.1751,7.9028e-05,9.7e-06,0.0,0 STARLINK-4765,1 53937U 22119BD  23287.18875151  .00000970  00000-0  79028-4 0  9996,2 53937  53.2161 273.3060 0002009 101.9466 258.1751 15.08847267 59210,6917.858,95.437,541.113,538.333,0.0
53937.0,STARLINK-4765,PAYLOAD,2023-10-14 06:07:11,15.08849335,0.0001873,53.2171,273.0139,95.6672,264.4534,0.0001314,1.804e-05,0.0,0 STARLINK-4765,1 53937U 22119BD  23287.25498906  .00001804  00000-0  13140-3 0  9992,2 53937  53.2171 273.0139 0001873  95.6672 264.4534 15.08849335 59645,6917.852,95.437,541.013,538.421,0.0
53937.0,STARLINK-4765,PAYLOAD,2023-10-14 15:39:30,15.0883723,0.0001786,53.2172,271.2287,94.6411,265.4785,-7.4552e-05,-1.474e-05,0.0,0 STARLINK-4765,1 53937U 22119BD  23287.65243216 -.00001474  00000-0 -74552-4 0  9998,2 53937  53.2172 271.2287 0001786  94.6411 265.4785 15.08837230 59283,6917.889,95.438,540.989,538.518,0.0
53937.0,STARLINK-4765,PAYLOAD,2023-10-14 22:01:03,15.08834974,0.0001996,53.2174,270.042,101.239,258.8827,-0.00013084,-2.37e-05,0.0,0 STARLINK-4765,1 53937U 22119BD  23287.91739833 -.00002370  00000-0 -13084-3 0  9990,2 53937  53.2174 270.0420 0001996 101.2390 258.8827 15.08834974 59741,6917.896,95.438,541.142,538.38,0.0
53937.0,STARLINK-4765,PAYLOAD,2023-10-15 04:22:36,15.08827405,0.0001739,53.2168,268.85,107.9832,252.135,-0.0001945,-3.381e-05,0.0,0 STARLINK-4765,1 53937U 22119BD  23288.18236118 -.00003381  00000-0 -19450-3 0  9994,2 53937  53.2168 268.8500 0001739 107.9832 252.1350 15.08827405 59364,6917.919,95.438,540.987,538.581,0.0
53937.0,STARLINK-4765,PAYLOAD,2023-10-15 09:08:45,15.08832263,0.0001651,53.217,267.9587,101.7789,258.3388,-8.7516e-05,-1.68e-05,0.0,0 STARLINK-4765,1 53937U 22119BD  23288.38108054 -.00001680  00000-0 -87516-4 0  9992,2 53937  53.2170 267.9587 0001651 101.7789 258.3388 15.08832263 59815,6917.904,95.438,540.911,538.627,0.0
53937.0,STARLINK-4765,PAYLOAD,2023-10-15 15:30:18,15.0883351,0.0001689,53.2178,266.7696,102.9946,257.1235,9.3285e-05,1.197e-05,0.0,0 STARLINK-4765,1 53937U 22119BD  23288.64604232  .00001197  00000-0  93285-4 0  9991,2 53937  53.2178 266.7696 0001689 102.9946 257.1235 15.08833510 59432,6917.9,95.438,540.934,538.597,0.0
53937.0,STARLINK-4765,PAYLOAD,2023-10-16 02:37:59,15.08849564,0.0001521,53.2167,264.6873,99.1618,260.9547,0.00036756,5.568e-05,0.0,0 STARLINK-4765,1 53937U 22119BD  23289.10971795  .00005568  00000-0  36756-3 0  9999,2 53937  53.2167 264.6873 0001521  99.1618 260.9547 15.08849564 59504,6917.851,95.437,540.768,538.664,0.0
53937.0,STARLINK-4765,PAYLOAD,2023-10-16 08:59:31,15.08877965,0.0001472,53.2163,263.4983,101.3127,258.8031,0.0016915,0.00026763,0.0,0 STARLINK-4765,1 53937U 22119BD  23289.37467552  .00026763  00000-0  16915-2 0  9993,2 53937  53.2163 263.4983 0001472 101.3127 258.8031 15.08877965 59549,6917.764,95.435,540.648,538.611,0.0
53937.0,STARLINK-4765,PAYLOAD,2023-10-16 21:42:37,15.0886353,0.0003015,53.2146,261.1158,92.5481,267.5856,0.0010395,0.00016306,0.0,0 STARLINK-4765,1 53937U 22119BD  23289.90459939  .00016306  00000-0  10395-2 0  9990,2 53937  53.2146 261.1158 0003015  92.5481 267.5856 15.08863530 60040,6917.808,95.436,541.759,537.588,0.0
53937.0,STARLINK-4765,PAYLOAD,2023-10-18 02:19:33,15.08854841,0.0001407,53.217,255.7661,95.3744,264.7409,0.0004179,6.372e-05,0.0,0 STARLINK-4765,1 53937U 22119BD  23291.09691616  .00006372  00000-0  41790-3 0  9999,2 53937  53.2170 255.7661 0001407  95.3744 264.7409 15.08854841 60229,6917.835,95.437,540.673,538.727,0.0
53937.0,STARLINK-4765,PAYLOAD,2023-10-18 05:30:19,15.08858168,0.0001533,53.2168,255.172,86.5252,273.5916,0.00070075,0.00010888,0.0,0 STARLINK-4765,1 53937U 22119BD  23291.22939603  .00010888  00000-0  70075-3 0  9990,2 53937  53.2168 255.1720 0001533  86.5252 273.5916 15.08858168 59823,6917.825,95.436,540.75,538.629,0.0
53937.0,STARLINK-4765,PAYLOAD,2023-10-18 15:02:38,15.08850403,0.0001671,53.2175,253.389,77.9395,282.1784,0.00041211,6.279e-05,0.0,0 STARLINK-4765,1 53937U 22119BD  23291.62683805  .00006279  00000-0  41211-3 0  9993,2 53937  53.2175 253.3890 0001671  77.9395 282.1784 15.08850403 59883,6917.849,95.437,540.87,538.558,0.0
53937.0,STARLINK-4765,PAYLOAD,2023-10-18 21:24:11,15.08850012,0.000187,53.2169,252.1978,84.1676,275.953,0.00036109,5.465e-05,0.0,0 STARLINK-4765,1 53937U 22119BD  23291.89179806  .00005465  00000-0  36109-3 0  9999,2 53937  53.2169 252.1978 0001870  84.1676 275.9530 15.08850012 60341,6917.85,95.437,541.008,538.421,0.0
53937.0,STARLINK-4765,PAYLOAD,2023-10-19 03:45:43,15.08856581,0.0001512,53.2163,251.0081,92.3969,267.7196,0.00054686,8.43e-05,0.0,0 STARLINK-4765,1 53937U 22119BD  23292.15675488  .00008430  00000-0  54686-3 0  9991,2 53937  53.2163 251.0081 0001512  92.3969 267.7196 15.08856581 60385,6917.83,95.437,540.741,538.649,0.0
53937.0,STARLINK-4765,PAYLOAD,2023-10-20 02:01:07,15.08855742,0.0001488,53.217,246.8445,101.688,258.428,0.00065978,0.00010232,0.0,0 STARLINK-4765,1 53937U 22119BD  23293.08411366  .00010232  00000-0  65978-3 0  9996,2 53937  53.2170 246.8445 0001488 101.6880 258.4280 15.08855742 60106,6917.832,95.437,540.727,538.668,0.0
